     2              NAVIGATION DATA                         RINEX VERSION / TYPE
CCRINEXN V1.6.0 UX  CDDIS               03-OCT-16 15:33     PGM / RUN BY / DATE 
IGS BROADCAST EPHEMERIS FILE                                COMMENT             
    0.1024D-07  0.7451D-08 -0.5960D-07 -0.5960D-07          ION ALPHA           
    0.8806D+05  0.0000D+00 -0.1966D+06 -0.6554D+05          ION BETA            
   -0.465661287308D-08-0.799360577730D-14   147456     1917 DELTA-UTC: A0,A1,T,W
    17                                                      LEAP SECONDS        
                                                            END OF HEADER       
14 16 10  2  4  0  0.0-0.379737466574D-04-0.193267624127D-11 0.000000000000D+00
    0.340000000000D+02 0.954062500000D+02 0.446697178159D-08-0.227470451112D+01
    0.490806996822D-05 0.874886231031D-02 0.810250639916D-05 0.515359402466D+04
    0.144000000000D+05 0.106170773506D-06-0.237335479429D+01 0.298023223877D-07
    0.963355823545D+00 0.222375000000D+03-0.194261057933D+01-0.794890253227D-08
    0.526450500205D-09 0.100000000000D+01 0.191700000000D+04 0.000000000000D+00
    0.200000000000D+01 0.000000000000D+00-0.931322574616D-08 0.340000000000D+02
    0.720000000000D+04 0.400000000000D+01 0.000000000000D+00 0.000000000000D+00
15 16 10  2  4  0  0.0-0.329376664013D-03-0.136424205266D-11 0.000000000000D+00
    0.670000000000D+02 0.822500000000D+02 0.513092800946D-08-0.256322581267D+01
    0.401027500629D-05 0.854298123158D-02 0.100005418062D-04 0.515368180656D+04
    0.144000000000D+05 0.372529029846D-08-0.251386794268D+01-0.188127160072D-06
    0.930392652646D+00 0.172843750000D+03 0.506690498150D+00-0.824212903204D-08
    0.474305471012D-09 0.100000000000D+01 0.191700000000D+04 0.000000000000D+00
    0.200000000000D+01 0.000000000000D+00-0.107102096081D-07 0.670000000000D+02
    0.720000000000D+04 0.400000000000D+01 0.000000000000D+00 0.000000000000D+00
16 16 10  2  4  0  0.0 0.914651900530D-05 0.181898940355D-11 0.000000000000D+00
    0.780000000000D+02-0.599062500000D+02 0.369908259579D-08-0.890314519688D+00
   -0.320374965668D-05 0.869010027964D-02 0.110957771540D-04 0.515357547188D+04
    0.144000000000D+05 0.188127160072D-06-0.281520758698D+00 0.111758708954D-07
    0.990902297412D+00 0.182031250000D+03 0.386340195203D+00-0.760960272572D-08
   -0.366443847488D-09 0.100000000000D+01 0.191700000000D+04 0.000000000000D+00
    0.200000000000D+01 0.000000000000D+00-0.107102096081D-07 0.780000000000D+02
    0.720000000000D+04 0.000000000000D+00 0.000000000000D+00 0.000000000000D+00
17 16 10  2  4  0  0.0-0.201644375920D-03 0.568434188608D-12 0.000000000000D+00
    0.730000000000D+02 0.602187500000D+02 0.404731144391D-08-0.183314754534D+01
    0.309757888317D-05 0.112345372327D-01 0.976026058197D-05 0.515375077248D+04
    0.144000000000D+05 0.318512320519D-06 0.737887808263D+00 0.111758708954D-07
    0.977660347706D+00 0.201500000000D+03-0.192201506271D+01-0.765139013968D-08
    0.427517807833D-09 0.100000000000D+01 0.191700000000D+04 0.000000000000D+00
    0.290000000000D+01 0.000000000000D+00-0.107102096081D-07 0.730000000000D+02
    0.720000000000D+04 0.400000000000D+01 0.000000000000D+00 0.000000000000D+00
18 16 10  2  4  0  0.0 0.563123729080D-03 0.352429196937D-11 0.000000000000D+00
    0.410000000000D+02-0.490937500000D+02 0.528736309704D-08-0.262657183469D+00
   -0.256858766079D-05 0.172575521283D-01 0.102426856756D-04 0.515372317123D+04
    0.144000000000D+05-0.201165676117D-06 0.274976561589D+01 0.230967998505D-06
    0.925559959825D+00 0.169437500000D+03-0.185742284075D+01-0.868429030698D-08
   -0.268225458381D-09 0.100000000000D+01 0.191700000000D+04 0.000000000000D+00
    0.200000000000D+01 0.000000000000D+00-0.111758708954D-07 0.410000000000D+02
    0.720000000000D+04 0.400000000000D+01 0.000000000000D+00 0.000000000000D+00
19 16 10  2  4  0  0.0-0.522313639522D-03 0.454747350886D-12 0.000000000000D+00
    0.670000000000D+02 0.523125000000D+02 0.414195824347D-08 0.129628000377D+01
    0.280328094959D-05 0.104537436273D-01 0.994279980659D-05 0.515363080216D+04
    0.144000000000D+05-0.124797224999D-06 0.786316172288D+00-0.372529029846D-08
    0.974770791916D+00 0.202468750000D+03 0.871221867579D+00-0.793818780024D-08
    0.324299222650D-09 0.100000000000D+01 0.191700000000D+04 0.000000000000D+00
    0.200000000000D+01 0.000000000000D+00-0.149011611938D-07 0.670000000000D+02
    0.720000000000D+04 0.400000000000D+01 0.000000000000D+00 0.000000000000D+00
20 16 10  2  4  0  0.0 0.438640825450D-03 0.193267624127D-11 0.000000000000D+00
    0.220000000000D+02-0.648125000000D+02 0.512735643212D-08-0.269572090894D+01
   -0.351481139660D-05 0.468191807158D-02 0.930204987526D-05 0.515359412766D+04
    0.144000000000D+05 0.279396772385D-07 0.269815453754D+01-0.335276126862D-07
    0.926826874677D+00 0.176875000000D+03 0.144839869048D+01-0.827463038586D-08
   -0.352514683652D-09 0.100000000000D+01 0.191700000000D+04 0.000000000000D+00
    0.200000000000D+01 0.000000000000D+00-0.838190317154D-08 0.220000000000D+02
    0.978000000000D+04 0.400000000000D+01 0.000000000000D+00 0.000000000000D+00
21 16 10  2  4  0  0.0-0.532482285052D-03-0.341060513165D-12 0.000000000000D+00
    0.990000000000D+02-0.325000000000D+01 0.556844623385D-08 0.711618081521D+00
   -0.193715095520D-06 0.233291633194D-01 0.389665365219D-05 0.515380932617D+04
    0.144000000000D+05-0.318512320519D-06 0.170809672860D+01-0.800937414169D-07
    0.937065380420D+00 0.299625000000D+03-0.175409076622D+01-0.911823695403D-08
   -0.180007498035D-09 0.100000000000D+01 0.191700000000D+04 0.000000000000D+00
    0.200000000000D+01 0.000000000000D+00-0.977888703346D-08 0.990000000000D+02
    0.139800000000D+05 0.400000000000D+01 0.000000000000D+00 0.000000000000D+00
22 16 10  2  4  0  0.0 0.229956116527D-03-0.102318153950D-10 0.000000000000D+00
    0.970000000000D+02-0.446875000000D+02 0.514664294977D-08-0.233263098342D+01
   -0.251084566116D-05 0.741261790972D-02 0.996328890324D-05 0.515371788788D+04
    0.144000000000D+05 0.121071934700D-06 0.275014470625D+01 0.372529029846D-07
    0.923510025385D+00 0.161593750000D+03-0.186031091899D+01-0.821998525252D-08
   -0.289297764699D-09 0.100000000000D+01 0.191700000000D+04 0.000000000000D+00
    0.200000000000D+01 0.000000000000D+00-0.176951289177D-07 0.970000000000D+02
    0.720000000000D+04 0.400000000000D+01 0.000000000000D+00 0.000000000000D+00
23 16 10  2  4  0  0.0-0.191921368241D-03-0.136424205266D-11 0.000000000000D+00
    0.610000000000D+02 0.102531250000D+03 0.477412743300D-08-0.309218273151D+01
    0.516325235367D-05 0.111295306124D-01 0.928901135921D-05 0.515361498833D+04
    0.144000000000D+05-0.279396772385D-07-0.245410591781D+01-0.122934579849D-06
    0.945563111665D+00 0.196250000000D+03-0.252770952349D+01-0.804497796277D-08
    0.494306304127D-09 0.100000000000D+01 0.191700000000D+04 0.000000000000D+00
    0.200000000000D+01 0.000000000000D+00-0.200234353542D-07 0.610000000000D+02
    0.918000000000D+04 0.400000000000D+01 0.000000000000D+00 0.000000000000D+00
24 16 10  2  4  0  0.0-0.239796936512D-04-0.568434188608D-12 0.000000000000D+00
    0.300000000000D+02 0.371875000000D+01 0.533986528397D-08 0.264696004705D+01
    0.219792127609D-06 0.472377985716D-02 0.224448740482D-05 0.515372053528D+04
    0.144000000000D+05-0.108033418655D-06-0.142862485104D+01-0.242143869400D-07
    0.947645641382D+00 0.329000000000D+03 0.392428617404D+00-0.859464371570D-08
    0.346443002170D-10 0.100000000000D+01 0.191700000000D+04 0.000000000000D+00
    0.200000000000D+01 0.000000000000D+00 0.232830643654D-08 0.300000000000D+02
    0.720000000000D+04 0.400000000000D+01 0.000000000000D+00 0.000000000000D+00
26 16 10  2  4  0  0.0-0.479793641716D-03-0.659383658785D-11 0.000000000000D+00
    0.710000000000D+02-0.787500000000D+02 0.437053919336D-08 0.105352639423D+00
   -0.426545739174D-05 0.101844908204D-02 0.100284814835D-04 0.515359211159D+04
    0.144000000000D+05 0.242143869400D-07-0.363926410379D+00 0.242143869400D-07
    0.960376977087D+00 0.186343750000D+03-0.122742314447D+00-0.796747473445D-08
   -0.447875798682D-09 0.100000000000D+01 0.191700000000D+04 0.000000000000D+00
    0.280000000000D+01 0.000000000000D+00 0.698491930962D-08 0.710000000000D+02
    0.123600000000D+05 0.400000000000D+01 0.000000000000D+00 0.000000000000D+00
27 16 10  2  4  0  0.0 0.146510545164D-03 0.488853402203D-11 0.000000000000D+00
    0.780000000000D+02 0.600937500000D+02 0.410302813947D-08-0.180232282566D+01
    0.320002436638D-05 0.382385216653D-02 0.972487032413D-05 0.515365163231D+04
    0.144000000000D+05-0.894069671631D-07 0.687255171942D+00-0.391155481338D-07
    0.972638218697D+00 0.200406250000D+03 0.339432385304D+00-0.777746667069D-08
    0.422874762984D-09 0.100000000000D+01 0.191700000000D+04 0.000000000000D+00
    0.200000000000D+01 0.000000000000D+00 0.186264514923D-08 0.780000000000D+02
    0.720000000000D+04 0.000000000000D+00 0.000000000000D+00 0.000000000000D+00
28 16 10  2  4  0  0.0 0.556217972189D-03 0.272848410532D-11 0.000000000000D+00
    0.680000000000D+02-0.653125000000D+02 0.384408860299D-08-0.957257744622D+00
   -0.337138772011D-05 0.199099517195D-01 0.112503767013D-04 0.515363548660D+04
    0.144000000000D+05-0.298023223877D-06-0.276707547557D+00 0.180676579475D-06
    0.989640158988D+00 0.180750000000D+03-0.161110079366D+01-0.798747556985D-08
   -0.403588246156D-09 0.100000000000D+01 0.191700000000D+04 0.000000000000D+00
    0.280000000000D+01 0.000000000000D+00-0.107102096081D-07 0.680000000000D+02
    0.720000000000D+04 0.000000000000D+00 0.000000000000D+00 0.000000000000D+00
